BEIDOU-2 IGSO-5         
1 37948U 11073A   26183.72937883 -.00000128  00000+0  00000+0 0  9990
2 37948  47.6496 271.3544 0114527 222.0502 141.5350  1.00270596 53296
LUCH-5A                 
1 37951U 11074B   26190.88708487 -.00000046  00000+0  00000+0 0  9995
2 37951   8.8083  73.4735 0002566  57.5000 283.1588  1.00272587 53273
BEIDOU-2 G5             
1 38091U 12008A   26191.15084760  .00000065  00000+0  00000+0 0  9991
2 38091   3.6273  69.5549 0007357 271.1607  60.3662  1.00269053 52598
BEIDOU-2 M3             
1 38250U 12018A   26191.27788637 -.00000070  00000+0  00000+0 0  9993
2 38250  55.7366 304.0977 0020758 272.6344  87.1430  1.86230078 96375
BEIDOU-2 M4             
1 38251U 12018B   26191.21022520 -.00000069  00000+0  00000+0 0  9998
2 38251  55.6365 303.3118 0012127 272.8990  86.9783  1.86229678 96375
SES-5                   
1 38652U 12036A   26190.85501885  .00000046  00000+0  00000+0 0  9992
2 38652   0.0450 319.9907 0002058 149.7218 130.8584  1.00272424 44683
BEIDOU-2 M6             
1 38775U 12050B   26190.91986512 -.00000047  00000+0  00000+0 0  9997
2 38775  56.5639  62.1429 0013039   0.9461 359.1187  1.86230853 93738
GSAT-10                 
1 38779U 12051B   26191.15561429 -.00000153  00000+0  00000+0 0  9993
2 38779   0.1055 265.9328 0007471 186.8596 334.2821  1.00272033 50325
NAVSTAR 67 (USA 239)    
1 38833U 12053A   26191.25023182  .00000035  00000+0  00000+0 0  9994
2 38833  53.5890 142.6546 0181683  66.1329 295.7288  2.00567808 99903
GSAT0103 (GALILEO-FM3)  
1 38857U 12055A   26190.76599401 -.00000019  00000+0  00000+0 0  9992
2 38857  55.8193 100.9259 0003945 309.3641  50.6099  1.70473301 85397
BEIDOU-2 G6             
1 38953U 12059A   26191.08453939 -.00000167  00000+0  00000+0 0  9998
2 38953   4.4756  73.2802 0008818 329.9398 359.1724  1.00268183 50135
LUCH-5B                 
1 38977U 12061A   26191.01138831 -.00000135  00000+0  00000+0 0  9996
2 38977  10.5296  49.6499 0003731 144.0727  82.0682  1.00271225 49839
COSMOS 2485 [GLONASS-M] 
1 39155U 13019A   26190.90371962 -.00000024  00000+0  00000+0 0  9997
2 39155  65.4318  72.8426 0022783 231.6229 128.2327  2.13103399102760
NAVSTAR 68 (USA 242)    
1 39166U 13023A   26191.11781976  .00000003  00000+0  00000+0 0  9994
2 39166  54.4865 268.0387 0141385  51.1056 310.2117  2.00563312 96342
IRNSS-1A                
1 39199U 13034A   26188.72632976  .00000061  00000+0  00000+0 0  9994
2 39199  35.7641  63.5758 0017575 183.3679 355.4225  1.00281056 47577
NAVSTAR 69 (USA 248)    
1 39533U 14008A   26191.11963967  .00000048  00000+0  00000+0 0  9997
2 39533  53.6572 148.3845 0084178 231.5363 127.6798  2.00561207 90144
ASTRA 5B                
1 39617U 14011B   26191.28629823  .00000148  00000+0  00000+0 0  9993
2 39617   0.0627 313.7291 0001790 162.7970 298.2453  1.00271751 44890
COSMOS 2492 [GLONASS-M] 
1 39620U 14012A   26190.86257322 -.00000059  00000+0  00000+0 0  9994
2 39620  65.2834 313.1658 0010286 319.9222  40.0089  2.13103446 95720
IRNSS-1B                
1 39635U 14017A   26190.71017007  .00000147  00000+0  00000+0 0  9990
2 39635  28.8843 240.0140 0022326 191.4588 166.9168  1.00274063 45013
LUCH-5V                 
1 39727U 14023A   26190.65886551 -.00000259  00000+0  00000+0 0  9995
2 39727   5.1849  69.5197 0002677  71.0216 118.8925  1.00266729 44581
NAVSTAR 70 (USA 251)    
1 39741U 14026A   26190.39837695 -.00000076  00000+0  00000+0 0  9997
2 39741  56.4865 330.6533 0038115 325.9438  33.8138  2.00559281 88986
COSMOS 2500 [GLONASS-M] 
1 40001U 14032A   26188.21653122 -.00000048  00000+0  00000+0 0  9993
2 40001  65.2207 313.0011 0007970 188.6383 171.3606  2.13106140 93888
NAVSTAR 71 (USA 256)    
1 40105U 14045A   26190.98872161 -.00000037  00000+0  00000+0 0  9993
2 40105  55.3675  87.5565 0034204 118.3307 242.0477  2.00559876 86535
GSAT0201 (GALILEO 5)    
1 40128U 14050A   26191.05431484 -.00000022  00000+0  00000+0 0  9996
2 40128  48.8500 272.4979 1677815 180.2883 179.6634  1.85519753 78743
GSAT0202 (GALILEO 6)    
1 40129U 14050B   26191.30977287 -.00000018  00000+0  00000+0 0  9996
2 40129  48.8671 271.5730 1679021 181.0029 178.6755  1.85520571 80915
IRNSS-1C                
1 40269U 14061A   26190.79910500 -.00000156  00000+0  00000+0 0  9993
2 40269   6.5737  88.5012 0022147   4.8380 205.0895  1.00273205 42919
NAVSTAR 72 (USA 258)    
1 40294U 14068A   26189.85970982 -.00000050  00000+0  00000+0 0  9996
2 40294  57.0024  30.1204 0067446  71.3730 289.4121  2.00577411 85644
COSMOS 2501 [GLONASS-K] 
1 40315U 14075A   26190.82512579  .00000122  00000+0  00000+0 0  9990
2 40315  63.6181 189.5884 0022642 212.5855 147.3037  2.13101357 90330
NAVSTAR 73 (USA 260)    
1 40534U 15013A   26190.99834083  .00000112  00000+0  00000+0 0  9990
2 40534  53.1666 203.2341 0110175  40.3280 320.5320  2.00549961 82283
GSAT0203 (GALILEO 7)    
1 40544U 15017A   26189.91637143 -.00000076  00000+0  00000+0 0  9993
2 40544  56.7793 341.0043 0002468 258.6385 101.3331  1.70476163 69572
GSAT0204 (GALILEO 8)    
1 40545U 15017B   26188.41247189 -.00000072  00000+0  00000+0 0  9991
2 40545  56.7861 341.0638 0002551 235.3414 124.6352  1.70475727 32584
