OBJECT_NAME,OBJECT_ID,EPOCH,MEAN_MOTION,ECCENTRICITY,INCLINATION,RA_OF_ASC_NODE,ARG_OF_PERICENTER,MEAN_ANOMALY,EPHEMERIS_TYPE,CLASSIFICATION_TYPE,NORAD_CAT_ID,ELEMENT_SET_NO,REV_AT_EPOCH,BSTAR,MEAN_MOTION_DOT,MEAN_MOTION_DDOT
BEIDOU-2 IGSO-5 (C10),2011-073A,2026-07-02T17:30:18.330912,1.00270596,.01145273,47.6496,271.3544,222.0502,141.5350,0,U,37948,999,5329,0,-.128E-5,0
LUCH 5A (SDCM/PRN 140),2011-074B,2026-07-09T21:17:24.132768,1.00272587,.00025667,8.8083,73.4735,57.5000,283.1588,0,U,37951,999,5327,0,-.46E-6,0
BEIDOU-2 G5 (C05),2012-008A,2026-07-10T03:37:13.232640,1.00269053,.00073577,3.6273,69.5549,271.1607,60.3662,0,U,38091,999,5259,0,.65E-6,0
BEIDOU-2 M3 (C11),2012-018A,2026-07-10T06:40:09.382368,1.86230078,.00207585,55.7366,304.0977,272.6344,87.1430,0,U,38250,999,9637,0,-.7E-6,0
BEIDOU-2 M4 (C12),2012-018B,2026-07-10T05:02:43.457280,1.86229678,.00121275,55.6365,303.3118,272.8990,86.9783,0,U,38251,999,9637,0,-.69E-6,0
SES-5 (EGNOS/PRN 136),2012-036A,2026-07-09T20:31:13.628640,1.00272424,.00020582,0.0450,319.9907,149.7218,130.8584,0,U,38652,999,4468,0,.46E-6,0
BEIDOU-2 M6 (C14),2012-050B,2026-07-09T22:04:36.346368,1.86230853,.00130391,56.5639,62.1429,0.9461,359.1187,0,U,38775,999,9373,0,-.47E-6,0
GSAT-10 (GAGAN/PRN 128),2012-051B,2026-07-10T03:44:05.074656,1.00272033,.00074714,0.1055,265.9328,186.8596,334.2821,0,U,38779,999,5032,0,-.153E-5,0
GPS BIIF-3  (PRN 24),2012-053A,2026-07-10T06:00:20.029248,2.00567808,.01816833,53.5890,142.6546,66.1329,295.7288,0,U,38833,999,9990,0,.35E-6,0
GSAT0103 (GALILEO-FM3),2012-055A,2026-07-09T18:23:01.882464,1.70473301,.00039458,55.8193,100.9259,309.3641,50.6099,0,U,38857,999,8539,0,-.19E-6,0
BEIDOU-2 G6 (C02),2012-059A,2026-07-10T02:01:44.203296,1.00268183,.00088186,4.4756,73.2802,329.9398,359.1724,0,U,38953,999,5013,0,-.167E-5,0
LUCH 5B (SDCM/PRN 125),2012-061A,2026-07-10T00:16:23.949984,1.00271225,.00037317,10.5296,49.6499,144.0727,82.0682,0,U,38977,999,4983,0,-.135E-5,0
COSMOS 2485 (747),2013-019A,2026-07-09T21:41:21.375168,2.13103399,.00227837,65.4318,72.8426,231.6229,128.2327,0,U,39155,999,10276,0,-.24E-6,0
GPS BIIF-4  (PRN 27),2013-023A,2026-07-10T02:49:39.627264,2.00563312,.01413852,54.4865,268.0387,51.1056,310.2117,0,U,39166,999,9634,0,.3E-7,0
IRNSS-1A,2013-034A,2026-07-07T17:25:54.891264,1.00281056,.00175755,35.7641,63.5758,183.3679,355.4225,0,U,39199,999,4757,0,.61E-6,0
GPS BIIF-5  (PRN 30),2014-008A,2026-07-10T02:52:16.867488,2.00561207,.00841781,53.6572,148.3845,231.5363,127.6798,0,U,39533,999,9014,0,.48E-6,0
ASTRA 5B (EGNOS/PRN 123),2014-011B,2026-07-10T06:52:16.167072,1.00271751,.00017909,0.0627,313.7291,162.7970,298.2453,0,U,39617,999,4489,0,.148E-5,0
COSMOS 2492 (754),2014-012A,2026-07-09T20:42:06.326208,2.13103446,.00102863,65.2834,313.1658,319.9222,40.0089,0,U,39620,999,9572,0,-.59E-6,0
IRNSS-1B,2014-017A,2026-07-09T17:02:38.694048,1.00274063,.00223267,28.8843,240.0140,191.4588,166.9168,0,U,39635,999,4501,0,.147E-5,0
LUCH 5V (SDCM/PRN 141),2014-023A,2026-07-09T15:48:45.980064,1.00266729,.00026779,5.1849,69.5197,71.0216,118.8925,0,U,39727,999,4458,0,-.259E-5,0
GPS BIIF-6  (PRN 06),2014-026A,2026-07-09T09:33:39.768480,2.00559281,.00381155,56.4865,330.6533,325.9438,33.8138,0,U,39741,999,8898,0,-.76E-6,0
COSMOS 2500 (755),2014-032A,2026-07-07T05:11:48.297408,2.13106140,.00079705,65.2207,313.0011,188.6383,171.3606,0,U,40001,999,9388,0,-.48E-6,0
GPS BIIF-7  (PRN 09),2014-045A,2026-07-09T23:43:45.547104,2.00559876,.00342049,55.3675,87.5565,118.3307,242.0477,0,U,40105,999,8653,0,-.37E-6,0
GSAT0201 (GALILEO 5),2014-050A,2026-07-10T01:18:12.802176,1.85519753,.16778151,48.8500,272.4979,180.2883,179.6634,0,U,40128,999,7874,0,-.22E-6,0
GSAT0202 (GALILEO 6),2014-050B,2026-07-10T07:26:04.375968,1.85520571,.16790215,48.8671,271.5730,181.0029,178.6755,0,U,40129,999,8091,0,-.18E-6,0
IRNSS-1C,2014-061A,2026-07-09T19:10:42.672000,1.00273205,.00221475,6.5737,88.5012,4.8380,205.0895,0,U,40269,999,4291,0,-.156E-5,0
GPS BIIF-8  (PRN 03),2014-068A,2026-07-08T20:37:58.928448,2.00577411,.00674461,57.0024,30.1204,71.3730,289.4121,0,U,40294,999,8564,0,-.5E-6,0
COSMOS 2501 (702K),2014-075A,2026-07-09T19:48:10.868256,2.13101357,.00226429,63.6181,189.5884,212.5855,147.3037,0,U,40315,999,9033,0,.122E-5,0
GPS BIIF-9  (PRN 26),2015-013A,2026-07-09T23:57:36.647712,2.00549961,.01101751,53.1666,203.2341,40.3280,320.5320,0,U,40534,999,8228,0,.112E-5,0
GSAT0203 (GALILEO 7),2015-017A,2026-07-08T21:59:34.491552,1.70476163,.00024684,56.7793,341.0043,258.6385,101.3331,0,U,40544,999,6957,0,-.76E-6,0
GSAT0204 (GALILEO 8),2015-017B,2026-07-07T09:53:57.571296,1.70475727,.00025512,56.7861,341.0638,235.3414,124.6352,0,U,40545,999,3258,0,-.72E-6,0
